AO-123
1 61781U 24199AY  26168.16499698  .00005901  00000-0  17206-3 0  9997
2 61781  97.2995  36.8360 0012312 314.2353  45.7879 15.35674881133928
JINJUSat 1B
1 63210U 25052A   26167.68917838  .00012762  00000-0  39628-3 0  9997
2 63210  97.4007  64.4436 0005487  91.7275 268.4596 15.33490601 70024
NUSHSAT 1
1 63211U 25052B   26167.99426719  .00017895  00000-0  51261-3 0  9994
2 63211  97.3984  65.3142 0005218  94.0535 266.1305 15.35965660 70116
TEVEL2-4
1 63213U 25052D   26167.98658140  .00016047  00000-0  48034-3 0  9992
2 63213  97.3904  64.3780 0004860 103.4475 256.7310 15.34605865 70081
TEVEL2-5
1 63214U 25052E   26167.94184661  .00015322  00000-0  46132-3 0  9993
2 63214  97.3902  64.2812 0004796 104.9018 255.2757 15.34430962 70074
TEVEL2-6
1 63215U 25052F   26168.14981521  .00014311  00000-0  43150-3 0  9991
2 63215  97.3903  64.4736 0004692 104.9299 255.2464 15.34400540 70107
TEVEL2-1
1 63217U 25052H   26167.98311731  .00015254  00000-0  46759-3 0  9999
2 63217  97.3878  63.9315 0004776 114.0246 246.1497 15.33862790 70062
TEVEL2-3
1 63218U 25052J   26167.97776757  .00015147  00000-0  46354-3 0  9994
2 63218  97.3882  63.9480 0004723 114.1810 245.9927 15.33918227 70063
TEVEL2-2
1 63219U 25052K   26167.65724747  .00014434  00000-0  44263-3 0  9997
2 63219  97.3883  63.6082 0004715 115.1533 245.0199 15.33861744 70012
TEVEL2-9
1 63237U 25052AD  26167.96058942  .00013167  00000-0  42947-3 0  9997
2 63237  97.3943  63.2870 0007801 131.5476 228.6436 15.31891765 69997
TEVEL2-7
1 63238U 25052AE  26167.67478499  .00012652  00000-0  41668-3 0  9996
2 63238  97.3945  62.9183 0007828 132.5601 227.6303 15.31589641 69947
TEVEL2-8
1 63239U 25052AF  26167.68303146  .00012386  00000-0  40821-3 0  9998
2 63239  97.3946  62.9032 0007849 133.0156 227.1744 15.31573973 69941
SPIRONE
1 66657U 25274H   26168.05397147  .00001387  00000-0  13687-3 0  9996
2 66657  97.7482  97.3473 0012655  21.8781 338.2977 14.93543968 30204
K-HERO
1 66660U 25274L   26167.72371610  .00001444  00000-0  14072-3 0  9993
2 66660  97.7487  97.1821 0014688  26.1853 334.0107 14.93960320 30163
SNUGLITE-III DURI
1 66661U 25274M   26167.71150347  .00001246  00000-0  12202-3 0  9998
2 66661  97.7487  97.1906 0015350  26.9691 333.2323 14.94000985 30167
SAKHACUBE-CHOLBON
1 67290U 25313AU  26167.70092354  .00007921  00000-0  32105-3 0  9993
2 67290  97.3933 242.7415 0008884   7.1471 352.9891 15.24881376 25901
RS95S (QMR-KWT-2)
1 67291U 25313AV  26168.01744105  .00012110  00000-0  46895-3 0  9994
2 67291  97.3931 243.2292 0008230   3.8879 356.2422 15.26290824 25966
Ten-Koh2
1 68261U 25241B   26166.70419506  .00005304  00000-0  23027-3 0  9999
2 68261  51.6697 326.6857 0006067 137.6687 222.4761 15.23889978 14686
JACK-002
1 68417U 26067B   26167.63458326  .00005644  00000-0  26992-3 0  9996
2 68417  97.4571 126.2320 0000242   9.1449 350.9790 15.19388001 11867
DISCO 2
1 68431U 26067R   26167.85325242  .00006771  00000-0  32607-3 0  9998
2 68431  97.4603 126.4365 0002841  44.7727 315.3736 15.19068757 11892
HADES-SA (SpinnyONE)
1 68446U 26067AG  26168.15594563  .00016320  00000-0  77982-3 0  9998
2 68446  97.4412 126.4529 0009466  82.0596 278.1713 15.19060224 11923
PARUS-6U1
1 68456U 26067AS  26168.12250442  .00004612  00000-0  23318-3 0  9996
2 68456  97.4556 126.4869 0007487  72.1443 288.0606 15.17516216 11928
SAL-E
1 68458U 26067AU  26167.85423580  .00006039  00000-0  30219-3 0  9995
2 68458  97.4480 126.1591 0007935  80.0139 280.1989 15.17751005 11882
FSI-SAT 2
1 68792U 26088A   26168.15294926  .00003666  00000-0  24934-3 0  9993
2 68792  97.5076 317.4125 0015868 106.8397 253.4572 15.06837406  8289
OrigamiSat 2
1 68795U 26088D   26168.16219010  .00010035  00000-0  64098-3 0  9991
2 68795  97.5076 317.5574 0016100  81.2845 279.0206 15.08736280  8294
ARICA 2
1 68796U 26088E   26168.16145014  .00003958  00000-0  25751-3 0  9993
2 68796  97.5064 317.5467 0016979  80.3825 279.9321 15.08427950  8293
WASEDA-SAT-ZERO-II
1 68797U 26088F   26168.15717008  .00005157  00000-0  33234-3 0  9999
2 68797  97.5064 317.5511 0016773  80.3758 279.9365 15.08643505  8295
MANGARO-II-Piscus
1 68798U 26088G   26168.14762449  .00003128  00000-0  20208-3 0  9991
2 68798  97.5075 317.5709 0020596  82.6191 277.7377 15.08786397  8297
IO-86
1 40931U          25360.30710720  .00000000  00000-0  12800-3 0    00
2 40931   6.0006 332.5373 0012733 338.8432   8.1437 14.79075515    01
LILIUM-4
1 71922C 26067AC  26089.50133053 -.00014632  00000 0 -74472-3 0    04
2 71922  97.4497  49.1617 0004341   5.9603 355.7042 15.16896692    16
